              M50 Cartesian                         M50 Keplerian  
    -----------------------------------       --------------------------------
     X    =        4171847.90                 A    =         6780174.49  meter
     Y    =       -2852909.96  meter          E    =           .0010340
     Z    =       -4530167.70                 I    =           51.99240
     XDOT =       1202.505516                 Wp   =           59.79685
     YDOT =       6850.867219  meter/sec      RA   =          101.16729  deg
     ZDOT =      -3207.391187                 TA   =          178.10142
                                              MA   =          178.09749
                                              Ha   =            220.793  n.mi
                                              Hp   =            214.465
 
              M50 Cartesian                         J2K Cartesian  
    -----------------------------------       --------------------------------
     X    =       13687165.04                 X    =         4225445.58
     Y    =       -9359940.83  feet           Y    =        -2805958.41  meter
     Z    =      -14862754.92                 Z    =        -4509771.24
     XDOT =       3945.228071                 XDOT =        1141.388297
     YDOT =      22476.598486  feet/sec       YDOT =        6863.972354  meter/sec
     ZDOT =     -10522.936965                 ZDOT =       -3201.698873
 
              TDR Cartesian                         TDR Cartesian  
    -----------------------------------       --------------------------------
     X    =        4131187.44                 X    =         1259185.93
     Y    =       16140689.36  feet           Y    =         4919682.12  meter
     Z    =      -14773621.77                 Z    =        -4502999.91
     XDOT =     -21327.293039                 XDOT =       -6500.558918
     YDOT =      -4150.225893  feet/sec       YDOT =       -1264.988852  meter/sec
     ZDOT =     -10499.371346                 ZDOT =       -3200.208386
  
  
    The mean element set is posted at the UTC for which position is
    just north of the next ascending node relative to the above
    vector time
 
 
    TWO LINE MEAN ELEMENT SET
  
    ISS
    1 25544U 98067A   16088.20240437  .00016717  00000-0  10270-3 0  9170
    2 25544  51.6408 101.9436 0001872 358.6642   1.4505 15.54325465 32383
  
  
    Satellite: ISS
    Catalog Number: 25544
    Epoch time:      16088.20240437   =   yrday.fracday
    Element set:     917
    Inclination:       51.6408  deg
    RA of node:       101.9436  deg
    Eccentricity:     .0001872     
    Arg of perigee:   358.6642  deg
    Mean anomaly:       1.4505  deg
    Mean motion:   15.54325465  rev/day
    Decay rate:    1.67170E-04  rev/day^2
    Epoch rev:            3238
    Checksum:              297
 
 
    Coasting Arc #19 (Orbit 3253)
    ---------------------------------------
 
    Vector Time (GMT): 2016/089/04:20:00.000
    Vector Time (MET): N/A
    Weight (LBS)     : 918408.3
 
              M50 Cartesian                         M50 Keplerian  
    -----------------------------------       --------------------------------
     X    =       -4206477.28                 A    =         6777205.25  meter
     Y    =        1057478.91  meter          E    =           .0003583
     Z    =        5204558.10                 I    =           51.98913
     XDOT =       -235.781141                 Wp   =           99.81103
     YDOT =      -7549.649156  meter/sec      RA   =           96.19350  deg
     ZDOT =       1342.019470                 TA   =          337.35302
                                              MA   =          337.36882
                                              Ha   =            220.864  n.mi
                                              Hp   =            214.255
 
              M50 Cartesian                         J2K Cartesian  
    -----------------------------------       --------------------------------
     X    =      -13800778.48                 X    =        -4243271.32
     Y    =        3469418.99  feet           Y    =         1010234.07  meter
     Z    =       17075321.86                 Z    =         5184034.47
     XDOT =       -773.560174                 XDOT =        -157.860562
     YDOT =     -24769.190143  feet/sec       YDOT =       -7551.850006  meter/sec
     ZDOT =       4402.951017                 ZDOT =        1341.064097
 
              TDR Cartesian                         TDR Cartesian  
    -----------------------------------       --------------------------------
     X    =        1207718.18                 X    =          368112.50
     Y    =      -14285808.84  feet           Y    =        -4354314.53  meter
     Z    =       16985936.95                 Z    =         5177313.58
     XDOT =      22658.625122                 XDOT =        6906.348937
     YDOT =       7152.718807  feet/sec       YDOT =        2180.148693  meter/sec
     ZDOT =       4400.109345                 ZDOT =        1341.153328
  
  
    The mean element set is posted at the UTC for which position is
    just north of the next ascending node relative to the above
    vector time
 
 
    TWO LINE MEAN ELEMENT SET
  
    ISS
    1 25544U 98067A   16089.23109627  .00016717  00000-0  10270-3 0  9180
    2 25544  51.6416  96.8138 0001869 359.2725    .8424 15.54381022 32540
  
  
    Satellite: ISS
    Catalog Number: 25544
    Epoch time:      16089.23109627   =   yrday.fracday
    Element set:     918
    Inclination:       51.6416  deg
    RA of node:        96.8138  deg
    Eccentricity:     .0001869     
    Arg of perigee:   359.2725  deg
    Mean anomaly:        .8424  deg
    Mean motion:   15.54381022  rev/day
    Decay rate:    1.67170E-04  rev/day^2
    Epoch rev:            3254
    Checksum:              314
 
             </PRE>
           </TD>
        </TR>
    </TABLE>
    
    <table align="center" border="0" width="600" cellpadding="0" cellspacing="0">
      <tr>
        <td align="center" valign="top"><hr size="1" width="600" noshade="noshade" />
        <font face="Arial,helvetica" size="-2">Curator: <a href="/cgi-bin/comment.cgi?jsc-hsfwebma@mail.nasa.gov">Kim 
          Dismukes</a> | Responsible NASA Official: <a href="/cgi-bin/comment.cgi?jsc-hsfwebma@mail.nasa.gov">Amiko Kauderer</a> | Updated: 06/08/2009<br />
        <a href="http://www.nasa.gov/about/highlights/HP_Privacy.html">Privacy Policy and Important Notices</a></font></td>
      </tr>
    </table>
    </body>
    </html>
